{"type":"FeatureCollection", "features": [
{"type":"Feature","geometry":{"type":"MultiPolygon","coordinates":[[[[113.132,-25.952],[113.096,-25.815],[112.982,-25.52],[112.908,-25.57],[112.964,-25.783],[113.132,-25.952]]],[[[115.354,-20.746],[115.309,-20.811],[115.388,-20.866],[115.446,-20.788],[115.354,-20.746]]],[[[124.551,-15.27],[124.483,-15.34],[124.56,-15.43],[124.605,-15.357],[124.551,-15.27]]],[[[125.198,-14.475],[125.117,-14.492],[125.091,-14.592],[125.199,-14.58],[125.198,-14.475]]],[[[129.002,-25.999],[129.002,-14.871],[128.635,-14.781],[128.477,-14.788],[128.403,-14.869],[128.285,-14.939],[128.175,-15.043],[128.227,-15.214],[128.156,-15.226],[128.069,-15.329],[128.08,-15.088],[128.124,-14.924],[128.199,-14.752],[128.18,-14.712],[127.888,-14.485],[127.673,-14.195],[127.458,-14.031],[127.293,-13.935],[127.099,-13.867],[127.006,-13.777],[126.903,-13.744],[126.776,-13.789],[126.781,-13.955],[126.679,-14.089],[126.57,-14.161],[126.403,-14.019],[126.323,-14.062],[126.259,-14.164],[126.184,-14.002],[126.054,-13.977],[126.111,-14.114],[126.054,-14.217],[126.017,-14.371],[126.021,-14.495],[125.85,-14.597],[125.82,-14.469],[125.681,-14.388],[125.705,-14.291],[125.597,-14.278],[125.58,-14.483],[125.436,-14.557],[125.335,-14.558],[125.179,-14.715],[125.18,-14.794],[125.243,-14.945],[125.384,-15.016],[125.356,-15.12],[125.189,-15.045],[125.024,-15.024],[124.979,-15.107],[124.839,-15.161],[124.909,-15.31],[125.073,-15.307],[125.063,-15.442],[124.751,-15.285],[124.562,-15.496],[124.44,-15.494],[124.382,-15.758],[124.455,-15.851],[124.504,-15.973],[124.609,-15.937],[124.577,-16.114],[124.434,-16.104],[124.388,-16.203],[124.454,-16.335],[124.669,-16.339],[124.692,-16.386],[124.3,-16.388],[124.13,-16.279],[123.961,-16.287],[123.859,-16.382],[123.729,-16.192],[123.607,-16.224],[123.647,-16.343],[123.581,-16.471],[123.49,-16.491],[123.607,-16.668],[123.68,-16.724],[123.778,-16.868],[123.874,-16.919],[123.799,-17.127],[123.664,-17.023],[123.586,-17.083],[123.608,-17.22],[123.525,-17.486],[123.383,-17.293],[123.266,-17.037],[123.142,-16.863],[122.971,-16.437],[122.917,-16.433],[122.72,-16.788],[122.523,-16.943],[122.432,-16.97],[122.261,-17.136],[122.16,-17.314],[122.148,-17.549],[122.237,-17.969],[122.361,-18.037],[122.345,-18.112],[122.262,-18.159],[122.006,-18.394],[121.834,-18.477],[121.785,-18.536],[121.631,-18.817],[121.493,-19.106],[121.338,-19.32],[121.18,-19.478],[120.878,-19.665],[120.434,-19.842],[120.196,-19.909],[119.768,-19.958],[119.586,-20.038],[119.104,-19.995],[118.751,-20.262],[118.199,-20.375],[118.087,-20.419],[117.832,-20.572],[117.684,-20.643],[117.406,-20.721],[117.293,-20.713],[117.139,-20.641],[116.995,-20.658],[116.707,-20.654],[116.011,-21.03],[115.772,-21.242],[115.596,-21.358],[115.456,-21.492],[115.162,-21.631],[114.859,-21.736],[114.709,-21.823],[114.603,-21.942],[114.378,-22.341],[114.304,-22.425],[114.142,-22.483],[114.164,-22.323],[114.093,-22.181],[114.143,-21.91],[114.124,-21.829],[113.958,-21.939],[113.795,-22.332],[113.683,-22.638],[113.768,-22.813],[113.795,-23.024],[113.765,-23.18],[113.757,-23.418],[113.553,-23.733],[113.49,-23.87],[113.421,-24.132],[113.418,-24.436],[113.569,-24.693],[113.671,-24.977],[113.792,-25.166],[113.993,-25.545],[114.214,-25.852],[114.228,-25.969],[114.203,-26.126],[114.216,-26.289],[114.09,-26.394],[113.942,-26.259],[113.88,-26.028],[113.766,-26.16],[113.692,-26.092],[113.713,-25.831],[113.54,-25.625],[113.451,-25.599],[113.395,-25.713],[113.513,-25.898],[113.589,-26.099],[113.706,-26.224],[113.853,-26.332],[113.837,-26.501],[113.734,-26.595],[113.582,-26.558],[113.546,-26.437],[113.389,-26.105],[113.345,-26.208],[113.231,-26.241],[113.333,-26.417],[113.709,-26.848],[114.028,-27.347],[114.098,-27.544],[114.134,-27.977],[114.165,-28.081],[114.354,-28.295],[114.537,-28.543],[114.592,-28.666],[114.629,-28.872],[114.857,-29.143],[114.959,-29.434],[114.971,-29.54],[114.942,-29.722],[114.995,-30.216],[115.078,-30.56],[115.177,-30.808],[115.294,-30.962],[115.454,-31.302],[115.698,-31.694],[115.738,-31.888],[115.725,-32.401],[115.708,-32.568],[115.619,-32.667],[115.671,-33.002],[115.683,-33.193],[115.515,-33.531],[115.359,-33.64],[115.182,-33.643],[114.994,-33.515],[114.973,-34.051],[115.009,-34.256],[115.128,-34.342],[115.278,-34.304],[115.565,-34.426],[115.726,-34.526],[115.987,-34.795],[116.217,-34.866],[116.517,-34.988],[116.865,-35.026],[117.144,-35.034],[117.582,-35.098],[117.863,-35.055],[118.136,-34.987],[118.895,-34.48],[119.248,-34.457],[119.45,-34.368],[119.635,-34.101],[119.854,-33.975],[120.209,-33.935],[120.418,-33.963],[120.53,-33.92],[120.815,-33.871],[121.405,-33.827],[121.73,-33.863],[122.061,-33.874],[122.151,-33.992],[122.778,-33.891],[123.068,-33.901],[123.208,-33.988],[123.365,-33.905],[123.507,-33.916],[123.65,-33.836],[123.868,-33.596],[123.967,-33.446],[124.126,-33.129],[124.244,-33.015],[124.373,-32.959],[124.759,-32.883],[125.267,-32.614],[125.464,-32.557],[125.917,-32.297],[126.137,-32.257],[126.779,-32.311],[127.084,-32.297],[127.32,-32.264],[127.678,-32.151],[128.068,-32.067],[128.546,-31.888],[128.946,-31.703],[129.002,-31.693],[129.002,-25.999]]]]},"properties":{"code":"WA","name":"Western Australia"}},
{"type":"Feature","geometry":{"type":"MultiPolygon","coordinates":[[[[129.002,-25.999],[138.002,-25.999],[138.002,-16.557],[138.002,-16.556],[137.913,-16.477],[137.704,-16.233],[137.299,-16.066],[137.002,-15.878],[136.785,-15.894],[136.698,-15.835],[136.705,-15.685],[136.584,-15.707],[136.292,-15.57],[136.205,-15.403],[135.97,-15.27],[135.833,-15.16],[135.531,-15],[135.453,-14.923],[135.405,-14.758],[135.539,-14.585],[135.745,-14.287],[135.883,-14.153],[135.99,-13.81],[135.929,-13.622],[135.927,-13.304],[136.166,-13.181],[136.294,-13.138],[136.412,-13.236],[136.461,-13.225],[136.594,-13.004],[136.518,-12.833],[136.537,-12.784],[136.947,-12.35],[136.897,-12.244],[136.719,-12.227],[136.61,-12.134],[136.54,-11.958],[136.443,-11.951],[136.27,-12.132],[136.328,-12.306],[136.261,-12.434],[136.082,-12.423],[136.031,-12.331],[136.008,-12.191],[135.938,-12.152],[135.744,-12.242],[135.702,-12.152],[135.889,-11.993],[135.788,-11.907],[135.686,-11.956],[135.549,-12.061],[135.352,-12.129],[135.218,-12.222],[135.03,-12.194],[134.855,-12.103],[134.73,-11.984],[134.538,-12.061],[134.237,-12.008],[134.139,-11.94],[133.904,-11.832],[133.533,-11.816],[133.356,-11.728],[133.185,-11.706],[133.114,-11.622],[133.025,-11.453],[132.857,-11.391],[132.683,-11.506],[132.557,-11.367],[132.334,-11.223],[132.263,-11.204],[132.198,-11.305],[132.106,-11.281],[131.962,-11.181],[131.812,-11.271],[131.945,-11.349],[132.073,-11.475],[132.134,-11.501],[132.278,-11.468],[132.475,-11.491],[132.674,-11.649],[132.63,-11.836],[132.631,-12.035],[132.584,-12.11],[132.442,-12.176],[132.372,-12.239],[132.253,-12.186],[132.064,-12.281],[131.888,-12.232],[131.726,-12.278],[131.438,-12.277],[131.342,-12.21],[131.314,-12.096],[131.22,-12.178],[131.046,-12.19],[131.023,-12.343],[130.874,-12.367],[130.898,-12.524],[130.777,-12.495],[130.736,-12.428],[130.623,-12.431],[130.617,-12.647],[130.4,-12.688],[130.318,-12.883],[130.168,-12.957],[130.135,-13.145],[130.26,-13.302],[130.136,-13.448],[129.938,-13.502],[129.839,-13.573],[129.718,-13.921],[129.71,-13.98],[129.62,-14.038],[129.459,-14.214],[129.379,-14.392],[129.484,-14.49],[129.608,-14.56],[129.605,-14.647],[129.753,-14.79],[129.637,-14.851],[129.567,-15.047],[129.459,-14.933],[129.268,-14.871],[129.233,-14.906],[129.238,-15.08],[129.058,-14.884],[129.002,-14.871],[129.002,-25.999]]],[[[137.065,-15.663],[137.009,-15.595],[136.943,-15.712],[137.051,-15.825],[137.094,-15.778],[137.065,-15.663]]],[[[136.934,-14.179],[136.787,-14.158],[136.745,-14.073],[136.805,-13.842],[136.715,-13.804],[136.656,-13.676],[136.534,-13.794],[136.425,-13.865],[136.428,-14.126],[136.363,-14.229],[136.65,-14.281],[136.894,-14.293],[136.934,-14.179]]],[[[136.215,-13.665],[136.134,-13.753],[136.214,-13.836],[136.275,-13.791],[136.215,-13.665]]],[[[130.58,-11.737],[130.459,-11.679],[130.386,-11.51],[130.339,-11.337],[130.251,-11.361],[130.153,-11.478],[130.198,-11.658],[130.072,-11.681],[130.043,-11.787],[130.131,-11.824],[130.318,-11.772],[130.502,-11.836],[130.606,-11.817],[130.58,-11.737]]],[[[131.473,-11.383],[131.437,-11.313],[131.268,-11.19],[131.023,-11.334],[130.913,-11.309],[130.752,-11.384],[130.619,-11.376],[130.427,-11.183],[130.369,-11.215],[130.423,-11.446],[130.512,-11.618],[130.645,-11.742],[130.951,-11.926],[131.292,-11.711],[131.383,-11.583],[131.539,-11.437],[131.473,-11.383]]],[[[136.732,-11.025],[136.71,-11.158],[136.649,-11.212],[136.56,-11.358],[136.599,-11.379],[136.742,-11.195],[136.732,-11.025]]],[[[132.593,-10.998],[132.484,-11.037],[132.494,-11.164],[132.574,-11.318],[132.629,-11.169],[132.593,-10.998]]]]},"properties":{"code":"NT","name":"Northern Territory"}},
{"type":"Feature","geometry":{"type":"MultiPolygon","coordinates":[[[[129.002,-31.693],[129.188,-31.66],[130.13,-31.579],[130.783,-31.604],[131.144,-31.496],[131.393,-31.549],[131.721,-31.696],[132.215,-32.007],[132.324,-32.02],[132.649,-31.949],[132.757,-31.956],[133.212,-32.184],[133.551,-32.183],[133.787,-32.269],[133.93,-32.412],[134.234,-32.549],[134.227,-32.731],[134.1,-32.749],[134.174,-32.979],[134.301,-33.165],[134.608,-33.19],[134.791,-33.328],[134.847,-33.445],[134.889,-33.626],[135.185,-33.907],[135.312,-34.196],[135.45,-34.581],[135.231,-34.58],[135.481,-34.758],[135.648,-34.94],[135.792,-34.863],[135.919,-34.962],[135.999,-34.944],[135.951,-34.767],[135.891,-34.661],[136.121,-34.429],[136.431,-34.03],[136.636,-33.897],[136.937,-33.75],[137.13,-33.703],[137.237,-33.629],[137.354,-33.43],[137.442,-33.194],[137.68,-32.978],[137.791,-32.823],[137.783,-32.578],[137.913,-32.771],[137.993,-33.094],[137.852,-33.201],[137.932,-33.579],[137.781,-33.703],[137.65,-33.859],[137.494,-34.161],[137.459,-34.379],[137.493,-34.598],[137.391,-34.913],[137.014,-34.916],[136.883,-35.24],[137.144,-35.236],[137.459,-35.131],[137.692,-35.143],[137.874,-34.727],[137.919,-34.456],[138.012,-34.334],[138.089,-34.17],[138.264,-34.44],[138.436,-34.656],[138.49,-34.764],[138.511,-35.024],[138.4,-35.326],[138.252,-35.487],[138.184,-35.613],[138.522,-35.642],[138.73,-35.551],[138.875,-35.537],[138.915,-35.489],[139.193,-35.347],[139.325,-35.427],[139.289,-35.611],[139.178,-35.523],[139.067,-35.598],[139.038,-35.689],[139.245,-35.827],[139.549,-36.097],[139.729,-36.371],[139.857,-36.662],[139.847,-36.748],[139.739,-37.06],[139.784,-37.246],[139.875,-37.352],[140.212,-37.642],[140.39,-37.897],[140.627,-38.028],[140.966,-38.071],[140.968,-34.005],[141.026,-34.043],[141.002,-28.999],[141.002,-25.999],[138.002,-25.999],[129.002,-25.999],[129.002,-31.693]]],[[[137.929,-35.726],[137.836,-35.762],[137.597,-35.739],[137.635,-35.656],[137.53,-35.605],[137.334,-35.593],[137.092,-35.664],[136.639,-35.749],[136.541,-35.89],[136.755,-36.033],[137.148,-36.039],[137.21,-35.982],[137.382,-36.021],[137.448,-36.075],[137.59,-36.027],[137.671,-35.898],[137.835,-35.868],[138.012,-35.908],[138.123,-35.852],[138.047,-35.755],[137.929,-35.726]]]]},"properties":{"code":"SA","name":"South Australia"}},
{"type":"Feature","geometry":{"type":"MultiPolygon","coordinates":[[[[138.002,-25.999],[141.002,-25.999],[141.002,-28.999],[148.974,-28.999],[149.081,-28.875],[149.335,-28.723],[149.512,-28.579],[149.677,-28.612],[149.852,-28.604],[150.149,-28.558],[150.341,-28.564],[150.47,-28.65],[150.712,-28.639],[150.856,-28.66],[151.05,-28.758],[151.118,-28.851],[151.231,-28.898],[151.303,-28.982],[151.335,-29.104],[151.393,-29.139],[151.529,-29.035],[151.554,-28.955],[151.73,-28.887],[151.761,-28.945],[151.935,-28.923],[152.024,-28.874],[152.069,-28.704],[151.966,-28.535],[152.163,-28.436],[152.413,-28.343],[152.493,-28.262],[152.752,-28.356],[152.846,-28.325],[153.118,-28.352],[153.194,-28.258],[153.382,-28.236],[153.515,-28.144],[153.455,-28.048],[153.386,-27.769],[153.198,-27.405],[153.117,-27.194],[153.162,-26.983],[153.084,-26.304],[153.165,-25.964],[153.028,-25.87],[152.921,-25.689],[152.913,-25.432],[152.789,-25.274],[152.654,-25.202],[152.502,-24.964],[152.456,-24.802],[152.13,-24.597],[152.055,-24.494],[151.903,-24.201],[151.832,-24.123],[151.691,-24.038],[151.501,-24.012],[151.236,-23.825],[151.154,-23.784],[151.088,-23.696],[150.843,-23.458],[150.783,-23.177],[150.783,-22.903],[150.764,-22.576],[150.672,-22.418],[150.569,-22.384],[150.541,-22.559],[150.235,-22.373],[150.076,-22.164],[149.981,-22.184],[149.942,-22.308],[150.005,-22.522],[149.974,-22.551],[149.823,-22.39],[149.704,-22.44],[149.596,-22.258],[149.46,-21.765],[149.454,-21.579],[149.329,-21.476],[149.28,-21.299],[149.205,-21.125],[149.06,-20.961],[148.789,-20.736],[148.684,-20.58],[148.73,-20.468],[148.885,-20.481],[148.759,-20.29],[148.601,-20.145],[148.367,-20.088],[148.19,-19.956],[148.081,-19.899],[147.916,-19.869],[147.853,-19.795],[147.742,-19.77],[147.586,-19.623],[147.51,-19.474],[147.419,-19.378],[147.278,-19.414],[147.139,-19.393],[147.003,-19.256],[146.829,-19.236],[146.692,-19.187],[146.481,-19.079],[146.383,-18.977],[146.297,-18.841],[146.333,-18.554],[146.223,-18.51],[146.032,-18.273],[146.023,-18.176],[146.074,-17.977],[146.126,-17.635],[146.05,-17.381],[145.902,-17.07],[145.912,-16.912],[145.755,-16.88],[145.55,-16.625],[145.426,-16.406],[145.458,-16.056],[145.375,-15.881],[145.35,-15.701],[145.271,-15.477],[145.293,-15.327],[145.252,-15.098],[145.288,-14.943],[144.916,-14.674],[144.648,-14.493],[144.586,-14.355],[144.473,-14.232],[144.21,-14.302],[144.106,-14.394],[143.962,-14.463],[143.756,-14.349],[143.643,-13.964],[143.548,-13.741],[143.587,-13.444],[143.53,-13.304],[143.512,-13.095],[143.458,-12.856],[143.397,-12.736],[143.402,-12.64],[143.29,-12.499],[143.254,-12.398],[143.11,-12.303],[143.105,-12.17],[143.179,-11.955],[142.988,-11.919],[142.873,-11.821],[142.85,-11.632],[142.837,-11.307],[142.78,-11.115],[142.723,-11.01],[142.553,-10.875],[142.605,-10.748],[142.457,-10.707],[142.326,-10.884],[142.168,-10.947],[142.139,-11.273],[142.04,-11.632],[141.952,-11.896],[141.961,-12.054],[141.871,-11.976],[141.806,-12.08],[141.689,-12.351],[141.678,-12.491],[141.852,-12.579],[141.93,-12.74],[141.782,-12.779],[141.614,-12.943],[141.645,-13.259],[141.534,-13.554],[141.473,-13.797],[141.481,-13.927],[141.594,-14.153],[141.523,-14.47],[141.604,-14.853],[141.626,-15.057],[141.452,-15.605],[141.393,-15.905],[141.412,-16.07],[141.291,-16.464],[141.219,-16.646],[140.966,-17.015],[140.83,-17.414],[140.511,-17.625],[140.21,-17.704],[140.036,-17.703],[139.894,-17.611],[139.69,-17.541],[139.441,-17.381],[139.248,-17.329],[139.154,-17.168],[139.11,-17.014],[139.01,-16.899],[138.82,-16.861],[138.626,-16.778],[138.506,-16.79],[138.245,-16.718],[138.002,-16.556],[138.002,-16.557],[138.002,-25.999]]],[[[153.539,-27.436],[153.435,-27.405],[153.401,-27.506],[153.396,-27.665],[153.453,-27.712],[153.539,-27.436]]],[[[153.282,-24.738],[153.181,-24.765],[153.242,-24.923],[153.189,-25.07],[153.038,-25.193],[153.061,-25.302],[152.977,-25.551],[153.007,-25.729],[153.084,-25.682],[153.141,-25.513],[153.35,-25.063],[153.359,-24.978],[153.298,-24.915],[153.282,-24.738]]],[[[151.229,-23.595],[151.24,-23.53],[151.06,-23.461],[151.033,-23.53],[151.184,-23.741],[151.296,-23.72],[151.229,-23.595]]],[[[148.981,-20.154],[148.939,-20.284],[149.045,-20.277],[148.981,-20.154]]],[[[146.278,-18.231],[146.116,-18.292],[146.236,-18.451],[146.342,-18.4],[146.278,-18.231]]],[[[139.493,-16.99],[139.459,-17.114],[139.571,-17.094],[139.493,-16.99]]],[[[139.588,-16.395],[139.293,-16.467],[139.163,-16.626],[139.16,-16.742],[139.43,-16.661],[139.56,-16.529],[139.698,-16.515],[139.588,-16.395]]],[[[142.131,-10.641],[142.191,-10.762],[142.275,-10.705],[142.198,-10.592],[142.131,-10.641]]],[[[142.219,-10.149],[142.279,-10.254],[142.339,-10.192],[142.219,-10.149]]]]},"properties":{"code":"QLD","name":"Queensland"}},
{"type":"Feature","geometry":{"type":"MultiPolygon","coordinates":[[[[147.312,-43.28],[147.163,-43.43],[147.309,-43.501],[147.356,-43.397],[147.312,-43.28]]],[[[148.341,-42.111],[148.302,-42.04],[148.288,-41.816],[148.29,-41.465],[148.312,-41.35],[148.285,-41.115],[148.293,-40.947],[148.215,-40.855],[147.969,-40.779],[147.873,-40.873],[147.622,-40.845],[147.455,-41.002],[147.321,-40.956],[146.99,-40.992],[146.857,-41.058],[146.723,-41.078],[146.574,-41.142],[146.318,-41.164],[146.111,-41.118],[145.821,-41.025],[145.734,-40.962],[145.429,-40.858],[145.283,-40.77],[145.043,-40.787],[144.819,-40.722],[144.71,-40.783],[144.646,-40.981],[144.778,-41.419],[144.916,-41.644],[145.055,-41.827],[145.238,-42.02],[145.235,-42.197],[145.36,-42.228],[145.373,-42.339],[145.199,-42.231],[145.268,-42.544],[145.488,-42.927],[145.61,-42.998],[145.803,-43.244],[145.975,-43.277],[146.043,-43.547],[146.187,-43.513],[146.549,-43.509],[146.699,-43.602],[146.874,-43.612],[147.077,-43.276],[147.245,-43.216],[147.26,-43.071],[147.408,-42.894],[147.452,-43.033],[147.549,-42.975],[147.574,-42.846],[147.8,-42.928],[147.774,-43.003],[147.648,-43.021],[147.786,-43.22],[147.981,-43.157],[147.915,-42.816],[147.924,-42.573],[148.009,-42.436],[148.023,-42.26],[148.067,-42.17],[148.183,-42.065],[148.341,-42.111]]],[[[148.421,-40.367],[148.326,-40.307],[148.198,-40.358],[148.059,-40.357],[148.102,-40.452],[148.474,-40.432],[148.421,-40.367]]],[[[148.251,-40.1],[148.297,-39.986],[148.178,-39.938],[148,-39.758],[147.933,-39.726],[147.839,-39.832],[147.89,-40.014],[148.106,-40.262],[148.21,-40.234],[148.323,-40.145],[148.251,-40.1]]],[[[144.121,-39.785],[144.091,-39.638],[144.001,-39.58],[143.862,-39.738],[143.839,-39.904],[143.888,-39.984],[143.899,-40.12],[144.035,-40.078],[144.141,-39.954],[144.121,-39.785]]]]},"properties":{"code":"TAS","name":"Tasmania"}},
{"type":"Feature","geometry":{"type":"Polygon","coordinates":[[[140.966,-38.071],[141.214,-38.172],[141.424,-38.363],[141.594,-38.388],[141.725,-38.271],[141.925,-38.284],[142.188,-38.399],[142.344,-38.372],[142.612,-38.452],[142.84,-38.581],[143.083,-38.646],[143.226,-38.743],[143.539,-38.821],[143.812,-38.699],[144.101,-38.462],[144.329,-38.348],[144.544,-38.284],[144.665,-38.21],[144.538,-38.077],[144.891,-37.9],[144.985,-37.952],[145.12,-38.091],[145.067,-38.205],[144.911,-38.344],[144.718,-38.34],[144.96,-38.501],[145.191,-38.384],[145.293,-38.238],[145.476,-38.244],[145.542,-38.394],[145.463,-38.416],[145.397,-38.535],[145.606,-38.657],[145.791,-38.667],[145.935,-38.902],[146.07,-38.834],[146.158,-38.866],[146.4,-39.146],[146.484,-39.065],[146.467,-38.84],[146.337,-38.894],[146.216,-38.783],[146.293,-38.7],[146.436,-38.712],[146.857,-38.663],[147.396,-38.219],[147.632,-38.056],[147.877,-37.934],[148.262,-37.831],[148.944,-37.789],[149.299,-37.802],[149.565,-37.73],[149.809,-37.548],[149.942,-37.501],[148.216,-36.803],[148.133,-36.777],[148.197,-36.625],[148.147,-36.546],[148.034,-36.181],[147.975,-36.046],[147.762,-35.956],[147.538,-35.984],[147.407,-35.971],[147.323,-36.069],[147.157,-36.036],[147.047,-36.106],[146.896,-36.1],[146.59,-36.005],[146.47,-35.994],[146.324,-36.054],[146.216,-36.057],[145.815,-35.977],[145.588,-35.863],[145.432,-35.835],[145.083,-35.862],[144.962,-35.922],[144.916,-36.107],[144.799,-36.126],[144.668,-36.088],[144.428,-35.905],[144.29,-35.73],[144.163,-35.634],[143.971,-35.528],[143.714,-35.411],[143.585,-35.327],[143.54,-35.234],[143.377,-35.127],[143.361,-34.882],[143.325,-34.788],[143.221,-34.733],[142.965,-34.691],[142.742,-34.598],[142.663,-34.741],[142.571,-34.775],[142.426,-34.593],[142.373,-34.333],[142.158,-34.173],[141.926,-34.117],[141.761,-34.112],[141.586,-34.191],[141.47,-34.183],[141.318,-34.112],[141.026,-34.043],[140.968,-34.005],[140.966,-38.071]]]},"properties":{"code":"VIC","name":"Victoria"}},
{"type":"Feature","geometry":{"type":"Polygon","coordinates":[[[149.404,-35.329],[149.256,-35.271],[149.19,-35.177],[149.105,-35.146],[148.828,-35.312],[148.77,-35.494],[148.792,-35.709],[148.89,-35.744],[148.948,-35.887],[149.051,-35.914],[149.105,-35.829],[149.087,-35.611],[149.185,-35.383],[149.404,-35.329]]]},"properties":{"code":"ACT","name":"Australian Capital Territory"}},
{"type":"Feature","geometry":{"type":"Polygon","coordinates":[[[141.026,-34.043],[141.318,-34.112],[141.47,-34.183],[141.586,-34.191],[141.761,-34.112],[141.926,-34.117],[142.158,-34.173],[142.373,-34.333],[142.426,-34.593],[142.571,-34.775],[142.663,-34.741],[142.742,-34.598],[142.965,-34.691],[143.221,-34.733],[143.325,-34.788],[143.361,-34.882],[143.377,-35.127],[143.54,-35.234],[143.585,-35.327],[143.714,-35.411],[143.971,-35.528],[144.163,-35.634],[144.29,-35.73],[144.428,-35.905],[144.668,-36.088],[144.799,-36.126],[144.916,-36.107],[144.962,-35.922],[145.083,-35.862],[145.432,-35.835],[145.588,-35.863],[145.815,-35.977],[146.216,-36.057],[146.324,-36.054],[146.47,-35.994],[146.59,-36.005],[146.896,-36.1],[147.047,-36.106],[147.157,-36.036],[147.323,-36.069],[147.407,-35.971],[147.538,-35.984],[147.762,-35.956],[147.975,-36.046],[148.034,-36.181],[148.147,-36.546],[148.197,-36.625],[148.133,-36.777],[148.216,-36.803],[149.942,-37.501],[149.986,-37.258],[149.951,-37.08],[149.96,-36.846],[150.063,-36.55],[150.129,-36.12],[150.195,-35.834],[150.374,-35.584],[150.568,-35.214],[150.705,-35.12],[150.697,-35.042],[150.809,-34.994],[150.781,-34.892],[150.871,-34.499],[150.96,-34.297],[151.232,-34.03],[151.28,-33.927],[151.323,-33.699],[151.292,-33.581],[151.432,-33.522],[151.484,-33.348],[151.608,-33.202],[151.813,-32.901],[151.954,-32.82],[152.164,-32.757],[152.247,-32.609],[152.47,-32.439],[152.545,-32.243],[152.559,-32.046],[152.786,-31.786],[152.944,-31.435],[153.048,-30.907],[153.024,-30.72],[153.031,-30.563],[153.188,-30.164],[153.272,-29.892],[153.347,-29.497],[153.348,-29.29],[153.462,-29.05],[153.605,-28.854],[153.617,-28.673],[153.569,-28.533],[153.576,-28.24],[153.515,-28.144],[153.382,-28.236],[153.194,-28.258],[153.118,-28.352],[152.846,-28.325],[152.752,-28.356],[152.493,-28.262],[152.413,-28.343],[152.163,-28.436],[151.966,-28.535],[152.069,-28.704],[152.024,-28.874],[151.935,-28.923],[151.761,-28.945],[151.73,-28.887],[151.554,-28.955],[151.529,-29.035],[151.393,-29.139],[151.335,-29.104],[151.303,-28.982],[151.231,-28.898],[151.118,-28.851],[151.05,-28.758],[150.856,-28.66],[150.712,-28.639],[150.47,-28.65],[150.341,-28.564],[150.149,-28.558],[149.852,-28.604],[149.677,-28.612],[149.512,-28.579],[149.335,-28.723],[149.081,-28.875],[148.974,-28.999],[141.002,-28.999],[141.026,-34.043]],[[149.404,-35.329],[149.185,-35.383],[149.087,-35.611],[149.105,-35.829],[149.051,-35.914],[148.948,-35.887],[148.89,-35.744],[148.792,-35.709],[148.77,-35.494],[148.828,-35.312],[149.105,-35.146],[149.19,-35.177],[149.256,-35.271],[149.404,-35.329]]]},"properties":{"code":"NSW","name":"New South Wales"}}
]}